[{"OBJECT_NAME":"STARLINK-2326","OBJECT_ID":"2021-021L","EPOCH":"2026-03-09T21:06:56.863584","MEAN_MOTION":15.30185263,"ECCENTRICITY":9.358e-5,"INCLINATION":53.1577,"RA_OF_ASC_NODE":280.0985,"ARG_OF_PERICENTER":92.4868,"MEAN_ANOMALY":267.624,"EPHEMERIS_TYPE":0,"CLASSIFICATION_TYPE":"U","NORAD_CAT_ID":47870,"ELEMENT_SET_NO":999,"REV_AT_EPOCH":27599,"BSTAR":-0.00017423369,"MEAN_MOTION_DOT":-5.513e-5,"MEAN_MOTION_DDOT":0},{"OBJECT_NAME":"YAOGAN-43 01G","OBJECT_ID":"2024-148G","EPOCH":"2026-03-09T10:38:37.087584","MEAN_MOTION":15.28332833,"ECCENTRICITY":0.00073829,"INCLINATION":35.0006,"RA_OF_ASC_NODE":62.0013,"ARG_OF_PERICENTER":306.3543,"MEAN_ANOMALY":53.6492,"EPHEMERIS_TYPE":0,"CLASSIFICATION_TYPE":"U","NORAD_CAT_ID":60464,"ELEMENT_SET_NO":999,"REV_AT_EPOCH":8700,"BSTAR":0.00035872736,"MEAN_MOTION_DOT":0.00010133,"MEAN_MOTION_DDOT":0}]
